{
  "links" : {
    "next" : "https://api.nasa.gov/neo/rest/v1/feed?start_date=1998-04-23&end_date=1998-04-23&detailed=true&api_key=t0TVs3DtDT2H8Oy2Zy8m2eVrNsAVKAexjcZXUckd",
    "prev" : "https://api.nasa.gov/neo/rest/v1/feed?start_date=1998-04-21&end_date=1998-04-21&detailed=true&api_key=t0TVs3DtDT2H8Oy2Zy8m2eVrNsAVKAexjcZXUckd",
    "self" : "https://api.nasa.gov/neo/rest/v1/feed?start_date=1998-04-22&end_date=1998-04-22&detailed=true&api_key=t0TVs3DtDT2H8Oy2Zy8m2eVrNsAVKAexjcZXUckd"
  },
  "element_count" : 2,
  "near_earth_objects" : {
    "1998-04-22" : [ {
      "links" : {
        "self" : "https://api.nasa.gov/neo/rest/v1/neo/2008507?api_key=t0TVs3DtDT2H8Oy2Zy8m2eVrNsAVKAexjcZXUckd"
      },
      "neo_reference_id" : "2008507",
      "name" : "8507 (1991 CB1)",
      "nasa_jpl_url" : "http://ssd.jpl.nasa.gov/sbdb.cgi?sstr=2008507",
      "absolute_magnitude_h" : 17.2,
      "estimated_diameter" : {
        "kilometers" : {
          "estimated_diameter_min" : 0.9650614696,
          "estimated_diameter_max" : 2.1579430484
        },
        "meters" : {
          "estimated_diameter_min" : 965.0614695789,
          "estimated_diameter_max" : 2157.9430484443
        },
        "miles" : {
          "estimated_diameter_min" : 0.5996612104,
          "estimated_diameter_max" : 1.34088323
        },
        "feet" : {
          "estimated_diameter_min" : 3166.2122718533,
          "estimated_diameter_max" : 7079.8658710581
        }
      },
      "is_potentially_hazardous_asteroid" : false,
      "close_approach_data" : [ {
        "close_approach_date" : "1998-04-22",
        "epoch_date_close_approach" : 893228400000,
        "relative_velocity" : {
          "kilometers_per_second" : "21.9991771481",
          "kilometers_per_hour" : "79197.0377330963",
          "miles_per_hour" : "49209.9593625453"
        },
        "miss_distance" : {
          "astronomical" : "0.2985416342",
          "lunar" : "116.1326980591",
          "kilometers" : "44661192",
          "miles" : "27751178"
        },
        "orbiting_body" : "Earth"
      } ],
      "orbital_data" : {
        "orbit_id" : "60",
        "orbit_determination_date" : "2017-04-06 09:30:01",
        "orbit_uncertainty" : "0",
        "minimum_orbit_intersection" : ".219636",
        "jupiter_tisserand_invariant" : "3.971",
        "epoch_osculation" : "2458000.5",
        "eccentricity" : ".594474957110196",
        "semi_major_axis" : "1.687056004490531",
        "inclination" : "14.58570507659379",
        "ascending_node_longitude" : "317.431945382754",
        "orbital_period" : "800.3734554736299",
        "perihelion_distance" : ".6841434585785237",
        "perihelion_argument" : "345.7498710779489",
        "aphelion_distance" : "2.689968550402537",
        "perihelion_time" : "2458178.262461096106",
        "mean_anomaly" : "280.0442174125719",
        "mean_motion" : ".4497900293144605",
        "equinox" : "J2000"
      }
    }, {
      "links" : {
        "self" : "https://api.nasa.gov/neo/rest/v1/neo/3608784?api_key=t0TVs3DtDT2H8Oy2Zy8m2eVrNsAVKAexjcZXUckd"
      },
      "neo_reference_id" : "3608784",
      "name" : "(2012 SK8)",
      "nasa_jpl_url" : "http://ssd.jpl.nasa.gov/sbdb.cgi?sstr=3608784",
      "absolute_magnitude_h" : 20.5,
      "estimated_diameter" : {
        "kilometers" : {
          "estimated_diameter_min" : 0.2111324448,
          "estimated_diameter_max" : 0.4721064988
        },
        "meters" : {
          "estimated_diameter_min" : 211.1324447897,
          "estimated_diameter_max" : 472.1064988055
        },
        "miles" : {
          "estimated_diameter_min" : 0.1311915784,
          "estimated_diameter_max" : 0.2933532873
        },
        "feet" : {
          "estimated_diameter_min" : 692.6917701639,
          "estimated_diameter_max" : 1548.9058855411
        }
      },
      "is_potentially_hazardous_asteroid" : false,
      "close_approach_data" : [ {
        "close_approach_date" : "1998-04-22",
        "epoch_date_close_approach" : 893228400000,
        "relative_velocity" : {
          "kilometers_per_second" : "12.4373668236",
          "kilometers_per_hour" : "44774.5205648858",
          "miles_per_hour" : "27821.1458476648"
        },
        "miss_distance" : {
          "astronomical" : "0.3456495395",
          "lunar" : "134.4576721191",
          "kilometers" : "51708436",
          "miles" : "32130132"
        },
        "orbiting_body" : "Earth"
      } ],
      "orbital_data" : {
        "orbit_id" : "29",
        "orbit_determination_date" : "2017-04-06 08:48:57",
        "orbit_uncertainty" : "1",
        "minimum_orbit_intersection" : ".128608",
        "jupiter_tisserand_invariant" : "4.789",
        "epoch_osculation" : "2458000.5",
        "eccentricity" : ".2263715496790311",
        "semi_major_axis" : "1.340533588394346",
        "inclination" : "23.47318423986274",
        "ascending_node_longitude" : "185.2810804010055",
        "orbital_period" : "566.9111216694996",
        "perihelion_distance" : "1.037074922592726",
        "perihelion_argument" : "119.2858597690133",
        "aphelion_distance" : "1.643992254195967",
        "perihelion_time" : "2457831.509057811118",
        "mean_anomaly" : "107.3126577740072",
        "mean_motion" : ".6350201755432739",
        "equinox" : "J2000"
      }
    } ]
  }
}